UNIGE_CUBESAT1
1 00321U 17021A   16303.82790574  .00000605  00000-0  72029-4 0  0011
2 00321  90.0000 115.0000 0000000 090.0000 023.0000 13.71901367460646
UNIGE_CUBESAT2
1 00322U 17021A   16303.82790574  .00000605  00000-0  72029-4 0  0012
2 00322  90.0000 115.0000 0000000 090.0000 059.0000 13.71901367460646
UNIGE_CUBESAT3
1 00323U 17021A   16303.82790574  .00000605  00000-0  72029-4 0  0013
2 00323  90.0000 115.0000 0000000 090.0000 095.0000 13.71901367460647
UNIGE_CUBESAT4
1 00324U 17021A   16303.82790574  .00000605  00000-0  72029-4 0  0014
2 00324  90.0000 115.0000 0000000 090.0000 131.0000 13.71901367460649
UNIGE_CUBESAT5
1 00325U 17021A   16303.82790574  .00000605  00000-0  72029-4 0  0015
2 00325  90.0000 115.0000 0000000 090.0000 167.0000 13.71901367460649
UNIGE_CUBESAT6
1 00326U 17021A   16303.82790574  .00000605  00000-0  72029-4 0  0016
2 00326  90.0000 115.0000 0000000 090.0000 203.0000 13.71901367460641
UNIGE_CUBESAT7
1 00327U 17021A   16303.82790574  .00000605  00000-0  72029-4 0  0017
2 00327  90.0000 115.0000 0000000 090.0000 239.0000 13.71901367460641
UNIGE_CUBESAT8
1 00328U 17021A   16303.82790574  .00000605  00000-0  72029-4 0  0018
2 00328  90.0000 115.0000 0000000 090.0000 275.0000 13.71901367460642
UNIGE_CUBESAT9
1 00329U 17021A   16303.82790574  .00000605  00000-0  72029-4 0  0019
2 00329  90.0000 115.0000 0000000 090.0000 311.0000 13.71901367460644
UNIGE_CUBESAT10
1 00330U 17021A   16303.82790574  .00000605  00000-0  72029-4 0  0011
2 00330  90.0000 115.0000 0000000 090.0000 347.0000 13.71901367460645
UNIGE_CUBESAT1
1 00331U 17021A   16303.82790574  .00000605  00000-0  72029-4 0  0012
2 00331  90.0000 118.0000 0000000 090.0000 023.0000 13.71901367460640
UNIGE_CUBESAT2
1 00332U 17021A   16303.82790574  .00000605  00000-0  72029-4 0  0013
2 00332  90.0000 118.0000 0000000 090.0000 059.0000 13.71901367460640
UNIGE_CUBESAT3
1 00333U 17021A   16303.82790574  .00000605  00000-0  72029-4 0  0014
2 00333  90.0000 118.0000 0000000 090.0000 095.0000 13.71901367460641
UNIGE_CUBESAT4
1 00334U 17021A   16303.82790574  .00000605  00000-0  72029-4 0  0015
2 00334  90.0000 118.0000 0000000 090.0000 131.0000 13.71901367460643
UNIGE_CUBESAT5
1 00335U 17021A   16303.82790574  .00000605  00000-0  72029-4 0  0016
2 00335  90.0000 118.0000 0000000 090.0000 167.0000 13.71901367460643
UNIGE_CUBESAT6
1 00336U 17021A   16303.82790574  .00000605  00000-0  72029-4 0  0017
2 00336  90.0000 118.0000 0000000 090.0000 203.0000 13.71901367460645
UNIGE_CUBESAT7
1 00337U 17021A   16303.82790574  .00000605  00000-0  72029-4 0  0018
2 00337  90.0000 118.0000 0000000 090.0000 239.0000 13.71901367460645
UNIGE_CUBESAT8
1 00338U 17021A   16303.82790574  .00000605  00000-0  72029-4 0  0019
2 00338  90.0000 118.0000 0000000 090.0000 275.0000 13.71901367460646
UNIGE_CUBESAT9
1 00339U 17021A   16303.82790574  .00000605  00000-0  72029-4 0  0010
2 00339  90.0000 118.0000 0000000 090.0000 311.0000 13.71901367460648
UNIGE_CUBESAT10
1 00340U 17021A   16303.82790574  .00000605  00000-0  72029-4 0  0012
2 00340  90.0000 118.0000 0000000 090.0000 347.0000 13.71901367460649
UNIGE_CUBESAT1
1 00341U 17021A   16303.82790574  .00000605  00000-0  72029-4 0  0013
2 00341  90.0000 122.0000 0000000 090.0000 024.0000 13.71901367460647
UNIGE_CUBESAT2
1 00342U 17021A   16303.82790574  .00000605  00000-0  72029-4 0  0014
2 00342  90.0000 122.0000 0000000 090.0000 060.0000 13.71901367460648
UNIGE_CUBESAT3
1 00343U 17021A   16303.82790574  .00000605  00000-0  72029-4 0  0015
2 00343  90.0000 122.0000 0000000 090.0000 096.0000 13.71901367460648
UNIGE_CUBESAT4
1 00344U 17021A   16303.82790574  .00000605  00000-0  72029-4 0  0016
2 00344  90.0000 122.0000 0000000 090.0000 132.0000 13.71901367460640
UNIGE_CUBESAT5
1 00345U 17021A   16303.82790574  .00000605  00000-0  72029-4 0  0017
2 00345  90.0000 122.0000 0000000 090.0000 168.0000 13.71901367460640
UNIGE_CUBESAT6
1 00346U 17021A   16303.82790574  .00000605  00000-0  72029-4 0  0018
2 00346  90.0000 122.0000 0000000 090.0000 204.0000 13.71901367460642
UNIGE_CUBESAT7
1 00347U 17021A   16303.82790574  .00000605  00000-0  72029-4 0  0019
2 00347  90.0000 122.0000 0000000 090.0000 240.0000 13.71901367460643
UNIGE_CUBESAT8
1 00348U 17021A   16303.82790574  .00000605  00000-0  72029-4 0  0010
2 00348  90.0000 122.0000 0000000 090.0000 276.0000 13.71901367460643
UNIGE_CUBESAT9
1 00349U 17021A   16303.82790574  .00000605  00000-0  72029-4 0  0011
2 00349  90.0000 122.0000 0000000 090.0000 312.0000 13.71901367460645
UNIGE_CUBESAT10
1 00350U 17021A   16303.82790574  .00000605  00000-0  72029-4 0  0013
2 00350  90.0000 122.0000 0000000 090.0000 348.0000 13.71901367460646
UNIGE_CUBESAT1
1 00351U 17021A   16303.82790574  .00000605  00000-0  72029-4 0  0014
2 00351  90.0000 126.0000 0000000 090.0000 025.0000 13.71901367460643
UNIGE_CUBESAT2
1 00352U 17021A   16303.82790574  .00000605  00000-0  72029-4 0  0015
2 00352  90.0000 126.0000 0000000 090.0000 061.0000 13.71901367460644
UNIGE_CUBESAT3
1 00353U 17021A   16303.82790574  .00000605  00000-0  72029-4 0  0016
2 00353  90.0000 126.0000 0000000 090.0000 097.0000 13.71901367460644
UNIGE_CUBESAT4
1 00354U 17021A   16303.82790574  .00000605  00000-0  72029-4 0  0017
2 00354  90.0000 126.0000 0000000 090.0000 133.0000 13.71901367460646
UNIGE_CUBESAT5
1 00355U 17021A   16303.82790574  .00000605  00000-0  72029-4 0  0018
2 00355  90.0000 126.0000 0000000 090.0000 169.0000 13.71901367460646
UNIGE_CUBESAT6
1 00356U 17021A   16303.82790574  .00000605  00000-0  72029-4 0  0019
2 00356  90.0000 126.0000 0000000 090.0000 205.0000 13.71901367460648
UNIGE_CUBESAT7
1 00357U 17021A   16303.82790574  .00000605  00000-0  72029-4 0  0010
2 00357  90.0000 126.0000 0000000 090.0000 241.0000 13.71901367460649
UNIGE_CUBESAT8
1 00358U 17021A   16303.82790574  .00000605  00000-0  72029-4 0  0011
2 00358  90.0000 126.0000 0000000 090.0000 277.0000 13.71901367460649
UNIGE_CUBESAT9
1 00359U 17021A   16303.82790574  .00000605  00000-0  72029-4 0  0012
2 00359  90.0000 126.0000 0000000 090.0000 313.0000 13.71901367460641
UNIGE_CUBESAT10
1 00360U 17021A   16303.82790574  .00000605  00000-0  72029-4 0  0014
2 00360  90.0000 126.0000 0000000 090.0000 349.0000 13.71901367460642
UNIGE_CUBESAT1
1 00361U 17021A   16303.82790574  .00000605  00000-0  72029-4 0  0015
2 00361  90.0000 129.0000 0000000 090.0000 025.0000 13.71901367460647
UNIGE_CUBESAT2
1 00362U 17021A   16303.82790574  .00000605  00000-0  72029-4 0  0016
2 00362  90.0000 129.0000 0000000 090.0000 061.0000 13.71901367460648
UNIGE_CUBESAT3
1 00363U 17021A   16303.82790574  .00000605  00000-0  72029-4 0  0017
2 00363  90.0000 129.0000 0000000 090.0000 097.0000 13.71901367460648
UNIGE_CUBESAT4
1 00364U 17021A   16303.82790574  .00000605  00000-0  72029-4 0  0018
2 00364  90.0000 129.0000 0000000 090.0000 133.0000 13.71901367460640
UNIGE_CUBESAT5
1 00365U 17021A   16303.82790574  .00000605  00000-0  72029-4 0  0019
2 00365  90.0000 129.0000 0000000 090.0000 169.0000 13.71901367460640
UNIGE_CUBESAT6
1 00366U 17021A   16303.82790574  .00000605  00000-0  72029-4 0  0010
2 00366  90.0000 129.0000 0000000 090.0000 205.0000 13.71901367460642
UNIGE_CUBESAT7
1 00367U 17021A   16303.82790574  .00000605  00000-0  72029-4 0  0011
2 00367  90.0000 129.0000 0000000 090.0000 241.0000 13.71901367460643
UNIGE_CUBESAT8
1 00368U 17021A   16303.82790574  .00000605  00000-0  72029-4 0  0012
2 00368  90.0000 129.0000 0000000 090.0000 277.0000 13.71901367460643
UNIGE_CUBESAT9
1 00369U 17021A   16303.82790574  .00000605  00000-0  72029-4 0  0013
2 00369  90.0000 129.0000 0000000 090.0000 313.0000 13.71901367460645
UNIGE_CUBESAT10
1 00370U 17021A   16303.82790574  .00000605  00000-0  72029-4 0  0015
2 00370  90.0000 129.0000 0000000 090.0000 349.0000 13.71901367460646
UNIGE_CUBESAT1
1 00371U 17021A   16303.82790574  .00000605  00000-0  72029-4 0  0016
2 00371  90.0000 133.0000 0000000 090.0000 026.0000 13.71901367460644
UNIGE_CUBESAT2
1 00372U 17021A   16303.82790574  .00000605  00000-0  72029-4 0  0017
2 00372  90.0000 133.0000 0000000 090.0000 062.0000 13.71901367460645
UNIGE_CUBESAT3
1 00373U 17021A   16303.82790574  .00000605  00000-0  72029-4 0  0018
2 00373  90.0000 133.0000 0000000 090.0000 098.0000 13.71901367460645
UNIGE_CUBESAT4
1 00374U 17021A   16303.82790574  .00000605  00000-0  72029-4 0  0019
2 00374  90.0000 133.0000 0000000 090.0000 134.0000 13.71901367460647
UNIGE_CUBESAT5
1 00375U 17021A   16303.82790574  .00000605  00000-0  72029-4 0  0010
2 00375  90.0000 133.0000 0000000 090.0000 170.0000 13.71901367460648
UNIGE_CUBESAT6
1 00376U 17021A   16303.82790574  .00000605  00000-0  72029-4 0  0011
2 00376  90.0000 133.0000 0000000 090.0000 206.0000 13.71901367460649
UNIGE_CUBESAT7
1 00377U 17021A   16303.82790574  .00000605  00000-0  72029-4 0  0012
2 00377  90.0000 133.0000 0000000 090.0000 242.0000 13.71901367460640
UNIGE_CUBESAT8
1 00378U 17021A   16303.82790574  .00000605  00000-0  72029-4 0  0013
2 00378  90.0000 133.0000 0000000 090.0000 278.0000 13.71901367460640
UNIGE_CUBESAT9
1 00379U 17021A   16303.82790574  .00000605  00000-0  72029-4 0  0014
2 00379  90.0000 133.0000 0000000 090.0000 314.0000 13.71901367460642
UNIGE_CUBESAT10
1 00380U 17021A   16303.82790574  .00000605  00000-0  72029-4 0  0016
2 00380  90.0000 133.0000 0000000 090.0000 350.0000 13.71901367460644
UNIGE_CUBESAT1
1 00381U 17021A   16303.82790574  .00000605  00000-0  72029-4 0  0017
2 00381  90.0000 136.0000 0000000 090.0000 027.0000 13.71901367460649
UNIGE_CUBESAT2
1 00382U 17021A   16303.82790574  .00000605  00000-0  72029-4 0  0018
2 00382  90.0000 136.0000 0000000 090.0000 063.0000 13.71901367460640
UNIGE_CUBESAT3
1 00383U 17021A   16303.82790574  .00000605  00000-0  72029-4 0  0019
2 00383  90.0000 136.0000 0000000 090.0000 099.0000 13.71901367460640
UNIGE_CUBESAT4
1 00384U 17021A   16303.82790574  .00000605  00000-0  72029-4 0  0010
2 00384  90.0000 136.0000 0000000 090.0000 135.0000 13.71901367460642
